CCSDS_OMM_VERS = 2.0
CREATION_DATE  = 
ORIGINATOR     = 

OBJECT_NAME    = SL-14 R/B
OBJECT_ID      = 1986-046B
CENTER_NAME    = EARTH
REF_FRAME      = TEME
TIME_SYSTEM    = UTC
MEAN_ELEMENT_THEORY = SGP/SGP4

EPOCH          = 2025-12-15T04:57:52.656480
MEAN_MOTION    = 14.85487287
ECCENTRICITY   = .00239814
INCLINATION    = 82.4809
RA_OF_ASC_NODE = 159.9839
ARG_OF_PERICENTER = 144.3464
MEAN_ANOMALY   = 215.9360

EPHEMERIS_TYPE = 0
CLASSIFICATION_TYPE = U
NORAD_CAT_ID   = 16792
ELEMENT_SET_NO = 999
REV_AT_EPOCH   = 11386
BSTAR          = .65675799E-4
MEAN_MOTION_DOT = .594E-5
MEAN_MOTION_DDOT = 0

CCSDS_OMM_VERS = 2.0
CREATION_DATE  = 
ORIGINATOR     = 

OBJECT_NAME    = SL-14 R/B
OBJECT_ID      = 1986-055B
CENTER_NAME    = EARTH
REF_FRAME      = TEME
TIME_SYSTEM    = UTC
MEAN_ELEMENT_THEORY = SGP/SGP4

EPOCH          = 2025-12-15T08:39:20.225664
MEAN_MOTION    = 14.85533332
ECCENTRICITY   = .00175193
INCLINATION    = 82.5201
RA_OF_ASC_NODE = 205.9102
ARG_OF_PERICENTER = 249.9943
MEAN_ANOMALY   = 283.1197

EPHEMERIS_TYPE = 0
CLASSIFICATION_TYPE = U
NORAD_CAT_ID   = 16882
ELEMENT_SET_NO = 999
REV_AT_EPOCH   = 10684
BSTAR          = .5328757E-4
MEAN_MOTION_DOT = .485E-5
MEAN_MOTION_DDOT = 0

CCSDS_OMM_VERS = 2.0
CREATION_DATE  = 
ORIGINATOR     = 

OBJECT_NAME    = AJISAI (EGS)
OBJECT_ID      = 1986-061A
CENTER_NAME    = EARTH
REF_FRAME      = TEME
TIME_SYSTEM    = UTC
MEAN_ELEMENT_THEORY = SGP/SGP4

EPOCH          = 2025-12-15T07:40:15.592224
MEAN_MOTION    = 12.44514322
ECCENTRICITY   = .0011302
INCLINATION    = 50.0113
RA_OF_ASC_NODE = 352.7841
ARG_OF_PERICENTER = 72.4078
MEAN_ANOMALY   = 27.2252

EPHEMERIS_TYPE = 0
CLASSIFICATION_TYPE = U
NORAD_CAT_ID   = 16908
ELEMENT_SET_NO = 999
REV_AT_EPOCH   = 45749
BSTAR          = .76757777E-4
MEAN_MOTION_DOT = -.87E-6
MEAN_MOTION_DDOT = 0

CCSDS_OMM_VERS = 2.0
CREATION_DATE  = 
ORIGINATOR     = 

OBJECT_NAME    = COSMOS 1812
OBJECT_ID      = 1987-003A
CENTER_NAME    = EARTH
REF_FRAME      = TEME
TIME_SYSTEM    = UTC
MEAN_ELEMENT_THEORY = SGP/SGP4

EPOCH          = 2025-12-15T08:01:01.699680
MEAN_MOTION    = 15.76033257
ECCENTRICITY   = .00070891
INCLINATION    = 82.4866
RA_OF_ASC_NODE = 289.2068
ARG_OF_PERICENTER = 83.3617
MEAN_ANOMALY   = 276.8455

EPHEMERIS_TYPE = 0
CLASSIFICATION_TYPE = U
NORAD_CAT_ID   = 17295
ELEMENT_SET_NO = 999
REV_AT_EPOCH   = 13106
BSTAR          = .49451926E-3
MEAN_MOTION_DOT = .77326E-3
MEAN_MOTION_DDOT = 0

CCSDS_OMM_VERS = 2.0
CREATION_DATE  = 
ORIGINATOR     = 

OBJECT_NAME    = SL-14 R/B
OBJECT_ID      = 1987-024B
CENTER_NAME    = EARTH
REF_FRAME      = TEME
TIME_SYSTEM    = UTC
MEAN_ELEMENT_THEORY = SGP/SGP4

EPOCH          = 2025-12-15T00:02:14.157600
MEAN_MOTION    = 14.86025934
ECCENTRICITY   = .00182727
INCLINATION    = 82.5274
RA_OF_ASC_NODE = 172.3297
ARG_OF_PERICENTER = 176.6670
MEAN_ANOMALY   = 183.4672

EPHEMERIS_TYPE = 0
CLASSIFICATION_TYPE = U
NORAD_CAT_ID   = 17567
ELEMENT_SET_NO = 999
REV_AT_EPOCH   = 7555
BSTAR          = .61753641E-4
MEAN_MOTION_DOT = .566E-5
MEAN_MOTION_DDOT = 0

CCSDS_OMM_VERS = 2.0
CREATION_DATE  = 
ORIGINATOR     = 

OBJECT_NAME    = COSMOS 1833
OBJECT_ID      = 1987-027A
CENTER_NAME    = EARTH
REF_FRAME      = TEME
TIME_SYSTEM    = UTC
MEAN_ELEMENT_THEORY = SGP/SGP4

EPOCH          = 2025-12-14T20:11:47.095584
MEAN_MOTION    = 14.13022425
ECCENTRICITY   = .0022613
INCLINATION    = 70.9138
RA_OF_ASC_NODE = 144.3587
ARG_OF_PERICENTER = 328.7938
MEAN_ANOMALY   = 31.1839

EPHEMERIS_TYPE = 0
CLASSIFICATION_TYPE = U
NORAD_CAT_ID   = 17589
ELEMENT_SET_NO = 999
REV_AT_EPOCH   = 99832
BSTAR          = .12303923E-3
MEAN_MOTION_DOT = .182E-5
MEAN_MOTION_DDOT = 0

CCSDS_OMM_VERS = 2.0
CREATION_DATE  = 
ORIGINATOR     = 

OBJECT_NAME    = SL-16 R/B
OBJECT_ID      = 1987-027B
CENTER_NAME    = EARTH
REF_FRAME      = TEME
TIME_SYSTEM    = UTC
MEAN_ELEMENT_THEORY = SGP/SGP4

EPOCH          = 2025-12-15T08:14:40.421760
MEAN_MOTION    = 14.17152810
ECCENTRICITY   = .00073135
INCLINATION    = 71.0031
RA_OF_ASC_NODE = 94.2315
ARG_OF_PERICENTER = 256.4601
MEAN_ANOMALY   = 103.5708

EPHEMERIS_TYPE = 0
CLASSIFICATION_TYPE = U
NORAD_CAT_ID   = 17590
ELEMENT_SET_NO = 999
REV_AT_EPOCH   = 339
BSTAR          = .10237616E-3
MEAN_MOTION_DOT = .158E-5
MEAN_MOTION_DDOT = 0

CCSDS_OMM_VERS = 2.0
CREATION_DATE  = 
ORIGINATOR     = 

OBJECT_NAME    = SL-14 R/B
OBJECT_ID      = 1987-038B
CENTER_NAME    = EARTH
REF_FRAME      = TEME
TIME_SYSTEM    = UTC
MEAN_ELEMENT_THEORY = SGP/SGP4

EPOCH          = 2025-12-15T08:34:23.646432
MEAN_MOTION    = 14.85263565
ECCENTRICITY   = .0020889
INCLINATION    = 82.5015
RA_OF_ASC_NODE = 16.2354
ARG_OF_PERICENTER = 84.1176
MEAN_ANOMALY   = 276.2420

EPHEMERIS_TYPE = 0
CLASSIFICATION_TYPE = U
NORAD_CAT_ID   = 17912
ELEMENT_SET_NO = 999
REV_AT_EPOCH   = 6671
BSTAR          = .52998364E-4
MEAN_MOTION_DOT = .481E-5
MEAN_MOTION_DDOT = 0

CCSDS_OMM_VERS = 2.0
CREATION_DATE  = 
ORIGINATOR     = 

OBJECT_NAME    = COSMOS 1844
OBJECT_ID      = 1987-041A
CENTER_NAME    = EARTH
REF_FRAME      = TEME
TIME_SYSTEM    = UTC
MEAN_ELEMENT_THEORY = SGP/SGP4

EPOCH          = 2025-12-15T07:40:40.791648
MEAN_MOTION    = 14.14526223
ECCENTRICITY   = .00300027
INCLINATION    = 70.8967
RA_OF_ASC_NODE = 212.1296
ARG_OF_PERICENTER = 152.9960
MEAN_ANOMALY   = 207.2731

EPHEMERIS_TYPE = 0
CLASSIFICATION_TYPE = U
NORAD_CAT_ID   = 17973
ELEMENT_SET_NO = 999
REV_AT_EPOCH   = 99165
BSTAR          = .48407066E-4
MEAN_MOTION_DOT = .45E-6
MEAN_MOTION_DDOT = 0

CCSDS_OMM_VERS = 2.0
CREATION_DATE  = 
ORIGINATOR     = 

OBJECT_NAME    = SL-14 R/B
OBJECT_ID      = 1987-055B
CENTER_NAME    = EARTH
REF_FRAME      = TEME
TIME_SYSTEM    = UTC
MEAN_ELEMENT_THEORY = SGP/SGP4

EPOCH          = 2025-12-15T06:45:01.763424
MEAN_MOTION    = 14.85523909
ECCENTRICITY   = .00192812
INCLINATION    = 82.4999
RA_OF_ASC_NODE = 68.5934
ARG_OF_PERICENTER = 294.3494
MEAN_ANOMALY   = 65.5709

EPHEMERIS_TYPE = 0
CLASSIFICATION_TYPE = U
NORAD_CAT_ID   = 18153
ELEMENT_SET_NO = 999
REV_AT_EPOCH   = 5740
BSTAR          = .5576248E-4
MEAN_MOTION_DOT = .507E-5
MEAN_MOTION_DDOT = 0

CCSDS_OMM_VERS = 2.0
CREATION_DATE  = 
ORIGINATOR     = 

OBJECT_NAME    = COSMOS 1867
OBJECT_ID      = 1987-060A
CENTER_NAME    = EARTH
REF_FRAME      = TEME
TIME_SYSTEM    = UTC
MEAN_ELEMENT_THEORY = SGP/SGP4

EPOCH          = 2025-12-15T06:10:59.699424
MEAN_MOTION    = 14.31486459
ECCENTRICITY   = .00136293
INCLINATION    = 65.0088
RA_OF_ASC_NODE = 183.1516
ARG_OF_PERICENTER = 271.3815
MEAN_ANOMALY   = 88.5708

EPHEMERIS_TYPE = 0
CLASSIFICATION_TYPE = U
NORAD_CAT_ID   = 18187
ELEMENT_SET_NO = 999
REV_AT_EPOCH   = 785
BSTAR          = .3849271E-4
MEAN_MOTION_DOT = .2E-7
MEAN_MOTION_DDOT = 0

CCSDS_OMM_VERS = 2.0
CREATION_DATE  = 
ORIGINATOR     = 

OBJECT_NAME    = SL-14 R/B
OBJECT_ID      = 1988-001B
CENTER_NAME    = EARTH
REF_FRAME      = TEME
TIME_SYSTEM    = UTC
MEAN_ELEMENT_THEORY = SGP/SGP4

EPOCH          = 2025-12-15T08:07:17.862816
MEAN_MOTION    = 14.85426780
ECCENTRICITY   = .00187133
INCLINATION    = 82.5133
RA_OF_ASC_NODE = 274.7030
ARG_OF_PERICENTER = 152.7406
MEAN_ANOMALY   = 207.4796

EPHEMERIS_TYPE = 0
CLASSIFICATION_TYPE = U
NORAD_CAT_ID   = 18749
ELEMENT_SET_NO = 999
REV_AT_EPOCH   = 2950
BSTAR          = .60341171E-4
MEAN_MOTION_DOT = .546E-5
MEAN_MOTION_DDOT = 0

