SL-14 R/B               
1 16792U 86046B   25349.20685945  .00000594  00000+0  65676-4 0  9992
2 16792  82.4809 159.9839 0023981 144.3464 215.9360 14.85487287113860
SL-14 R/B               
1 16882U 86055B   25349.36065076  .00000485  00000+0  53288-4 0  9991
2 16882  82.5201 205.9102 0017519 249.9943 283.1197 14.85533332106844
AJISAI (EGS)            
1 16908U 86061A   25349.31962491 -.00000087  00000+0  76758-4 0  9995
2 16908  50.0113 352.7841 0011302  72.4078  27.2252 12.44514322457498
COSMOS 1812             
1 17295U 87003A   25349.33404745  .00077326  00000+0  49452-3 0  9996
2 17295  82.4866 289.2068 0007089  83.3617 276.8455 15.76033257131064
SL-14 R/B               
1 17567U 87024B   25349.00155275  .00000566  00000+0  61754-4 0  9998
2 17567  82.5274 172.3297 0018272 176.6670 183.4672 14.86025934 75555
COSMOS 1833             
1 17589U 87027A   25348.84151731  .00000182  00000+0  12304-3 0  9999
2 17589  70.9138 144.3587 0022613 328.7938  31.1839 14.13022425998326
SL-16 R/B               
1 17590U 87027B   25349.34352340  .00000158  00000+0  10238-3 0  9993
2 17590  71.0031  94.2315 0007313 256.4601 103.5708 14.17152810  3397
SL-14 R/B               
1 17912U 87038B   25349.35721813  .00000481  00000+0  52998-4 0  9998
2 17912  82.5015  16.2354 0020889  84.1176 276.2420 14.85263565 66716
COSMOS 1844             
1 17973U 87041A   25349.31991657  .00000045  00000+0  48407-4 0  9996
2 17973  70.8967 212.1296 0030002 152.9960 207.2731 14.14526223991658
SL-14 R/B               
1 18153U 87055B   25349.28127041  .00000507  00000+0  55762-4 0  9991
2 18153  82.4999  68.5934 0019281 294.3494  65.5709 14.85523909 57406
COSMOS 1867             
1 18187U 87060A   25349.25763541  .00000002  00000+0  38493-4 0  9994
2 18187  65.0088 183.1516 0013629 271.3815  88.5708 14.31486459  7858
SL-14 R/B               
1 18749U 88001B   25349.33840119  .00000546  00000+0  60341-4 0  9990
2 18749  82.5133 274.7030 0018713 152.7406 207.4796 14.85426780 29507
